{
    "links": {
        "self": "http://www.neowsapp.com/rest/v1/neo/54093102?api_key=iIulBulltgU6a56xZRHN4H3l9WmuAYTsLGpBGhQ2"
    },
    "id": "54093102",
    "neo_reference_id": "54093102",
    "name": "(2020 WH4)",
    "designation": "2020 WH4",
    "nasa_jpl_url": "http://ssd.jpl.nasa.gov/sbdb.cgi?sstr=54093102",
    "absolute_magnitude_h": 24.922,
    "estimated_diameter": {
        "kilometers": {
            "estimated_diameter_min": 0.0275521172,
            "estimated_diameter_max": 0.0616084069
        },
        "meters": {
            "estimated_diameter_min": 27.5521171649,
            "estimated_diameter_max": 61.6084069047
        },
        "miles": {
            "estimated_diameter_min": 0.0171200866,
            "estimated_diameter_max": 0.0382816774
        },
        "feet": {
            "estimated_diameter_min": 90.3940880792,
            "estimated_diameter_max": 202.1273257092
        }
    },
    "is_potentially_hazardous_asteroid": false,
    "close_approach_data": [
        {
            "close_approach_date": "2020-09-23",
            "close_approach_date_full": "2020-Sep-23 23:56",
            "epoch_date_close_approach": 1600905360000,
            "relative_velocity": {
                "kilometers_per_second": "13.3908929342",
                "kilometers_per_hour": "48207.2145630268",
                "miles_per_hour": "29954.088404454"
            },
            "miss_distance": {
                "astronomical": "0.0828182117",
                "lunar": "32.2162843513",
                "kilometers": "12389428.067529079",
                "miles": "7698433.6200521302"
            },
            "orbiting_body": "Mars"
        },
        {
            "close_approach_date": "2020-11-28",
            "close_approach_date_full": "2020-Nov-28 14:37",
            "epoch_date_close_approach": 1606574220000,
            "relative_velocity": {
                "kilometers_per_second": "6.3965689095",
                "kilometers_per_hour": "23027.6480741459",
                "miles_per_hour": "14308.4849936269"
            },
            "miss_distance": {
                "astronomical": "0.1346650088",
                "lunar": "52.3846884232",
                "kilometers": "20145598.480011256",
                "miles": "12517894.4330010928"
            },
            "orbiting_body": "Earth"
        }
    ],
    "orbital_data": {
        "orbit_id": "1",
        "orbit_determination_date": "2020-11-24 17:42:02",
        "first_observation_date": "2020-11-14",
        "last_observation_date": "2020-11-25",
        "data_arc_in_days": 11,
        "observations_used": 20,
        "orbit_uncertainty": "9",
        "minimum_orbit_intersection": ".133176",
        "jupiter_tisserand_invariant": "3.004",
        "epoch_osculation": "2459174.5",
        "eccentricity": ".6055318770485522",
        "semi_major_axis": "2.836531129955007",
        "inclination": "5.522451167004737",
        "ascending_node_longitude": "64.93176833572778",
        "orbital_period": "1744.937026103585",
        "perihelion_distance": "1.118921110526701",
        "perihelion_argument": "5.343200225234194",
        "aphelion_distance": "4.554141149383313",
        "perihelion_time": "2459184.546880829621",
        "mean_anomaly": "357.9272162579185",
        "mean_motion": ".2063111703256558",
        "equinox": "J2000",
        "orbit_class": {
            "orbit_class_type": "AMO",
            "orbit_class_description": "Near-Earth asteroid orbits similar to that of 1221 Amor",
            "orbit_class_range": "1.017 AU < q (perihelion) < 1.3 AU"
        }
    },
    "is_sentry_object": false
}